{
  "type": "FeatureCollection",
  "features": [
    {
      "type": "Feature",
      "properties": {
        "norad_id": 66378,
        "name": "SHIYAN-32 02",
        "group": "last-30-days",
        "lat": -39.81774202836554,
        "lon": 80.39249718045404,
        "alt_km": 444.50700200688516,
        "timestamp": "2025-12-03T13:52:08.344555+00:00",
        "meta_object_name": "SHIYAN-32 02",
        "meta_object_id": "2025-255C",
        "meta_epoch": "2025-12-03T06:38:56.541120",
        "meta_mean_motion": 15.44097281,
        "meta_eccentricity": 0.001243,
        "meta_inclination": 52.9969,
        "meta_ra_of_asc_node": 222.8675,
        "meta_arg_of_pericenter": 10.0538,
        "meta_mean_anomaly": 350.0713,
        "meta_ephemeris_type": 0,
        "meta_classification_type": "U",
        "meta_norad_cat_id": 66378,
        "meta_element_set_no": 999,
        "meta_rev_at_epoch": 375,
        "meta_bstar": 0.0015910386,
        "meta_mean_motion_dot": 0.00074401,
        "meta_mean_motion_ddot": 0,
        "tle_line1": "1 66378U 25255C   25337.27704330  .00074401  00000+0  15910-2 0  9998",
        "tle_line2": "2 66378  52.9969 222.8675 0012430  10.0538 350.0713 15.44097281  3756"
      },
      "geometry": {
        "type": "Point",
        "coordinates": [
          80.39249718045404,
          -39.81774202836554
        ]
      }
    },
    {
      "type": "Feature",
      "properties": {
        "norad_id": 66379,
        "name": "SHIYAN-32 03",
        "group": "last-30-days",
        "lat": 8.131920843866443,
        "lon": 35.37441238835018,
        "alt_km": 447.6282795463976,
        "timestamp": "2025-12-03T13:52:08.344568+00:00",
        "meta_object_name": "SHIYAN-32 03",
        "meta_object_id": "2025-255D",
        "meta_epoch": "2025-12-03T06:55:02.765280",
        "meta_mean_motion": 15.42627557,
        "meta_eccentricity": 0.00154679,
        "meta_inclination": 52.9973,
        "meta_ra_of_asc_node": 222.9374,
        "meta_arg_of_pericenter": 13.8345,
        "meta_mean_anomaly": 346.308,
        "meta_ephemeris_type": 0,
        "meta_classification_type": "U",
        "meta_norad_cat_id": 66379,
        "meta_element_set_no": 999,
        "meta_rev_at_epoch": 377,
        "meta_bstar": 0.00052575283,
        "meta_mean_motion_dot": 0.00022987,
        "meta_mean_motion_ddot": 0,
        "tle_line1": "1 66379U 25255D   25337.28822645  .00022987  00000+0  52575-3 0  9991",
        "tle_line2": "2 66379  52.9973 222.9374 0015467  13.8345 346.3080 15.42627557  3779"
      },
      "geometry": {
        "type": "Point",
        "coordinates": [
          35.37441238835018,
          8.131920843866443
        ]
      }
    },
    {
      "type": "Feature",
      "properties": {
        "norad_id": 66380,
        "name": "STARLINK-35139",
        "group": "last-30-days",
        "lat": 47.72044925549141,
        "lon": 72.28241180301787,
        "alt_km": 440.27264247334915,
        "timestamp": "2025-12-03T13:52:08.344579+00:00",
        "meta_object_name": "STARLINK-35139",
        "meta_object_id": "2025-257A",
        "meta_epoch": "2025-12-03T08:00:01.999872",
        "meta_mean_motion": 15.39556256,
        "meta_eccentricity": 0.00010229,
        "meta_inclination": 53.1588,
        "meta_ra_of_asc_node": 308.9782,
        "meta_arg_of_pericenter": 80.9925,
        "meta_mean_anomaly": 115.3359,
        "meta_ephemeris_type": 0,
        "meta_classification_type": "U",
        "meta_norad_cat_id": 66380,
        "meta_element_set_no": 999,
        "meta_rev_at_epoch": 492,
        "meta_bstar": 0.0025825358,
        "meta_mean_motion_dot": 0.00104102,
        "meta_mean_motion_ddot": 0,
        "tle_line1": "1 66380U 25257A   25337.33335648  .00104102  00000+0  25825-2 0  9990",
        "tle_line2": "2 66380  53.1588 308.9782 0001022  80.9925 115.3359 15.39556256  4929"
      },
      "geometry": {
        "type": "Point",
        "coordinates": [
          72.28241180301787,
          47.72044925549141
        ]
      }
    },
    {
      "type": "Feature",
      "properties": {
        "norad_id": 66381,
        "name": "STARLINK-35158",
        "group": "last-30-days",
        "lat": 46.86399049253986,
        "lon": 74.67277577055604,
        "alt_km": 440.2808315814664,
        "timestamp": "2025-12-03T13:52:08.344589+00:00",
        "meta_object_name": "STARLINK-35158",
        "meta_object_id": "2025-257B",
        "meta_epoch": "2025-12-03T08:00:01.999872",
        "meta_mean_motion": 15.39552986,
        "meta_eccentricity": 0.00012995,
        "meta_inclination": 53.1587,
        "meta_ra_of_asc_node": 308.9738,
        "meta_arg_of_pericenter": 81.5281,
        "meta_mean_anomaly": 116.6385,
        "meta_ephemeris_type": 0,
        "meta_classification_type": "U",
        "meta_norad_cat_id": 66381,
        "meta_element_set_no": 999,
        "meta_rev_at_epoch": 498,
        "meta_bstar": 0.0021311253,
        "meta_mean_motion_dot": 0.00085617,
        "meta_mean_motion_ddot": 0,
        "tle_line1": "1 66381U 25257B   25337.33335648  .00085617  00000+0  21311-2 0  9996",
        "tle_line2": "2 66381  53.1587 308.9738 0001299  81.5281 116.6385 15.39552986  4983"
      },
      "geometry": {
        "type": "Point",
        "coordinates": [
          74.67277577055604,
          46.86399049253986
        ]
      }
    },
    {
      "type": "Feature",
      "properties": {
        "norad_id": 66382,
        "name": "STARLINK-35639",
        "group": "last-30-days",
        "lat": 32.26436013577041,
        "lon": 99.52263558442097,
        "alt_km": 442.74542590307374,
        "timestamp": "2025-12-03T13:52:08.344600+00:00",
        "meta_object_name": "STARLINK-35639",
        "meta_object_id": "2025-257C",
        "meta_epoch": "2025-12-03T08:00:01.999872",
        "meta_mean_motion": 15.39542741,
        "meta_eccentricity": 0.00012879,
        "meta_inclination": 53.159,
        "meta_ra_of_asc_node": 308.9248,
        "meta_arg_of_pericenter": 85.8077,
        "meta_mean_anomaly": 136.2666,
        "meta_ephemeris_type": 0,
        "meta_classification_type": "U",
        "meta_norad_cat_id": 66382,
        "meta_element_set_no": 999,
        "meta_rev_at_epoch": 498,
        "meta_bstar": 0.0027057376,
        "meta_mean_motion_dot": 0.00109111,
        "meta_mean_motion_ddot": 0,
        "tle_line1": "1 66382U 25257C   25337.33335648  .00109111  00000+0  27057-2 0  9996",
        "tle_line2": "2 66382  53.1590 308.9248 0001287  85.8077 136.2666 15.39542741  4989"
      },
      "geometry": {
        "type": "Point",
        "coordinates": [
          99.52263558442097,
          32.26436013577041
        ]
      }
    },
    {
      "type": "Feature",
      "properties": {
        "norad_id": 66383,
        "name": "STARLINK-35690",
        "group": "last-30-days",
        "lat": 12.769973813145175,
        "lon": 117.93803641362003,
        "alt_km": 445.66096070641106,
        "timestamp": "2025-12-03T13:52:08.344611+00:00",
        "meta_object_name": "STARLINK-35690",
        "meta_object_id": "2025-257D",
        "meta_epoch": "2025-12-03T08:00:01.999872",
        "meta_mean_motion": 15.40253069,
        "meta_eccentricity": 0.00015752,
        "meta_inclination": 53.1594,
        "meta_ra_of_asc_node": 308.8745,
        "meta_arg_of_pericenter": 87.962,
        "meta_mean_anomaly": 159.5062,
        "meta_ephemeris_type": 0,
        "meta_classification_type": "U",
        "meta_norad_cat_id": 66383,
        "meta_element_set_no": 999,
        "meta_rev_at_epoch": 498,
        "meta_bstar": -0.024352335,
        "meta_mean_motion_dot": -0.00913536,
        "meta_mean_motion_ddot": 0,
        "tle_line1": "1 66383U 25257D   25337.33335648 -.00913536  00000+0 -24352-1 0  9997",
        "tle_line2": "2 66383  53.1594 308.8745 0001575  87.9620 159.5062 15.40253069  4984"
      },
      "geometry": {
        "type": "Point",
        "coordinates": [
          117.93803641362003,
          12.769973813145175
        ]
      }
    },
    {
      "type": "Feature",
      "properties": {
        "norad_id": 66384,
        "name": "STARLINK-35662",
        "group": "last-30-days",
        "lat": 11.321295358192863,
        "lon": 119.08567543967057,
        "alt_km": 446.0529859505559,
        "timestamp": "2025-12-03T13:52:08.344623+00:00",
        "meta_object_name": "STARLINK-35662",
        "meta_object_id": "2025-257E",
        "meta_epoch": "2025-12-03T08:00:01.999872",
        "meta_mean_motion": 15.40241316,
        "meta_eccentricity": 0.00015616,
        "meta_inclination": 53.1595,
        "meta_ra_of_asc_node": 308.8716,
        "meta_arg_of_pericenter": 80.7636,
        "meta_mean_anomaly": 168.5442,
        "meta_ephemeris_type": 0,
        "meta_classification_type": "U",
        "meta_norad_cat_id": 66384,
        "meta_element_set_no": 999,
        "meta_rev_at_epoch": 498,
        "meta_bstar": -0.023943032,
        "meta_mean_motion_dot": -0.00899067,
        "meta_mean_motion_ddot": 0,
        "tle_line1": "1 66384U 25257E   25337.33335648 -.00899067  00000+0 -23943-1 0  9995",
        "tle_line2": "2 66384  53.1595 308.8716 0001561  80.7636 168.5442 15.40241316  4981"
      },
      "geometry": {
        "type": "Point",
        "coordinates": [
          119.08567543967057,
          11.321295358192863
        ]
      }
    }
  ]
}